{
  "type": "FeatureCollection",
  "features": [
    {
      "type": "Feature",
      "properties": {
        "norad_id": 36559,
        "name": "COSMOS 2251 DEB",
        "group": "cosmos-2251-debris",
        "lat": -12.17174607736495,
        "lon": 5.306281957014266,
        "alt_km": 799.9340381913862,
        "timestamp": "2025-12-13T07:35:41.901815+00:00",
        "meta_object_name": "COSMOS 2251 DEB",
        "meta_object_id": "1993-036BDV",
        "meta_epoch": "2025-12-13T00:46:12.246816",
        "meta_mean_motion": 13.95198042,
        "meta_eccentricity": 0.02601127,
        "meta_inclination": 74.1307,
        "meta_ra_of_asc_node": 9.3096,
        "meta_arg_of_pericenter": 42.0454,
        "meta_mean_anomaly": 320.0318,
        "meta_ephemeris_type": 0,
        "meta_classification_type": "U",
        "meta_norad_cat_id": 36559,
        "meta_element_set_no": 999,
        "meta_rev_at_epoch": 81098,
        "meta_bstar": 0.004107797,
        "meta_mean_motion_dot": 7.345e-05,
        "meta_mean_motion_ddot": 0,
        "tle_line1": "1 36559U 93036BDV 25347.03208619  .00007345  00000+0  41078-2 0  9999",
        "tle_line2": "2 36559  74.1307   9.3096 0260112  42.0454 320.0318 13.95198042810985"
      },
      "geometry": {
        "type": "Point",
        "coordinates": [
          5.306281957014266,
          -12.17174607736495
        ]
      }
    },
    {
      "type": "Feature",
      "properties": {
        "norad_id": 36614,
        "name": "COSMOS 2251 DEB",
        "group": "cosmos-2251-debris",
        "lat": -49.23552390790849,
        "lon": 154.07288717308163,
        "alt_km": 693.9762421229871,
        "timestamp": "2025-12-13T07:35:41.901823+00:00",
        "meta_object_name": "COSMOS 2251 DEB",
        "meta_object_id": "1993-036BEC",
        "meta_epoch": "2025-12-11T06:30:21.400992",
        "meta_mean_motion": 14.60233542,
        "meta_eccentricity": 0.00161993,
        "meta_inclination": 74.0218,
        "meta_ra_of_asc_node": 177.391,
        "meta_arg_of_pericenter": 247.2616,
        "meta_mean_anomaly": 112.6838,
        "meta_ephemeris_type": 0,
        "meta_classification_type": "U",
        "meta_norad_cat_id": 36614,
        "meta_element_set_no": 999,
        "meta_rev_at_epoch": 65591,
        "meta_bstar": 0.0024222077,
        "meta_mean_motion_dot": 0.00011696,
        "meta_mean_motion_ddot": 0,
        "tle_line1": "1 36614U 93036BEC 25345.27108103  .00011696  00000+0  24222-2 0  9998",
        "tle_line2": "2 36614  74.0218 177.3910 0016199 247.2616 112.6838 14.60233542655911"
      },
      "geometry": {
        "type": "Point",
        "coordinates": [
          154.07288717308163,
          -49.23552390790849
        ]
      }
    },
    {
      "type": "Feature",
      "properties": {
        "norad_id": 36622,
        "name": "COSMOS 2251 DEB",
        "group": "cosmos-2251-debris",
        "lat": 43.869084102407335,
        "lon": 160.34390838145538,
        "alt_km": 665.9152428137204,
        "timestamp": "2025-12-13T07:35:41.901839+00:00",
        "meta_object_name": "COSMOS 2251 DEB",
        "meta_object_id": "1993-036BEL",
        "meta_epoch": "2025-12-11T03:20:19.288032",
        "meta_mean_motion": 14.76173241,
        "meta_eccentricity": 0.00687556,
        "meta_inclination": 74.0131,
        "meta_ra_of_asc_node": 148.6142,
        "meta_arg_of_pericenter": 284.3168,
        "meta_mean_anomaly": 75.0379,
        "meta_ephemeris_type": 0,
        "meta_classification_type": "U",
        "meta_norad_cat_id": 36622,
        "meta_element_set_no": 999,
        "meta_rev_at_epoch": 66726,
        "meta_bstar": 0.0011392817,
        "meta_mean_motion_dot": 8.162e-05,
        "meta_mean_motion_ddot": 0,
        "tle_line1": "1 36622U 93036BEL 25345.13911213  .00008162  00000+0  11393-2 0  9995",
        "tle_line2": "2 36622  74.0131 148.6142 0068755 284.3168  75.0379 14.76173241667260"
      },
      "geometry": {
        "type": "Point",
        "coordinates": [
          160.34390838145538,
          43.869084102407335
        ]
      }
    },
    {
      "type": "Feature",
      "properties": {
        "norad_id": 36632,
        "name": "COSMOS 2251 DEB",
        "group": "cosmos-2251-debris",
        "lat": 38.63919026315008,
        "lon": 98.04037259323529,
        "alt_km": 748.8455642925201,
        "timestamp": "2025-12-13T07:35:41.901848+00:00",
        "meta_object_name": "COSMOS 2251 DEB",
        "meta_object_id": "1993-036BEW",
        "meta_epoch": "2025-12-11T03:22:48.137088",
        "meta_mean_motion": 14.43159024,
        "meta_eccentricity": 0.00319439,
        "meta_inclination": 74.0027,
        "meta_ra_of_asc_node": 295.3456,
        "meta_arg_of_pericenter": 43.4523,
        "meta_mean_anomaly": 316.9142,
        "meta_ephemeris_type": 0,
        "meta_classification_type": "U",
        "meta_norad_cat_id": 36632,
        "meta_element_set_no": 999,
        "meta_rev_at_epoch": 65192,
        "meta_bstar": 0.001324385,
        "meta_mean_motion_dot": 4.453e-05,
        "meta_mean_motion_ddot": 0,
        "tle_line1": "1 36632U 93036BEW 25345.14083492  .00004453  00000+0  13244-2 0  9992",
        "tle_line2": "2 36632  74.0027 295.3456 0031943  43.4523 316.9142 14.43159024651929"
      },
      "geometry": {
        "type": "Point",
        "coordinates": [
          98.04037259323529,
          38.63919026315008
        ]
      }
    },
    {
      "type": "Feature",
      "properties": {
        "norad_id": 37084,
        "name": "COSMOS 2251 DEB",
        "group": "cosmos-2251-debris",
        "lat": -71.64921567643744,
        "lon": 39.997750576238296,
        "alt_km": 506.98960177878416,
        "timestamp": "2025-12-13T07:35:41.901857+00:00",
        "meta_object_name": "COSMOS 2251 DEB",
        "meta_object_id": "1993-036BFE",
        "meta_epoch": "2025-12-08T19:15:18.077184",
        "meta_mean_motion": 15.00891112,
        "meta_eccentricity": 0.00979748,
        "meta_inclination": 74.0259,
        "meta_ra_of_asc_node": 169.4673,
        "meta_arg_of_pericenter": 250.8811,
        "meta_mean_anomaly": 108.175,
        "meta_ephemeris_type": 0,
        "meta_classification_type": "U",
        "meta_norad_cat_id": 37084,
        "meta_element_set_no": 999,
        "meta_rev_at_epoch": 66208,
        "meta_bstar": 0.00080064992,
        "meta_mean_motion_dot": 0.00011267,
        "meta_mean_motion_ddot": 0,
        "tle_line1": "1 37084U 93036BFE 25342.80229256  .00011267  00000+0  80065-3 0  9991",
        "tle_line2": "2 37084  74.0259 169.4673 0097974 250.8811 108.1750 15.00891112662080"
      },
      "geometry": {
        "type": "Point",
        "coordinates": [
          39.997750576238296,
          -71.64921567643744
        ]
      }
    },
    {
      "type": "Feature",
      "properties": {
        "norad_id": 37085,
        "name": "COSMOS 2251 DEB",
        "group": "cosmos-2251-debris",
        "lat": 31.855552730374992,
        "lon": -134.90477093097007,
        "alt_km": 425.37560262522857,
        "timestamp": "2025-12-13T07:35:41.901867+00:00",
        "meta_object_name": "COSMOS 2251 DEB",
        "meta_object_id": "1993-036BFF",
        "meta_epoch": "2025-12-12T22:06:23.478048",
        "meta_mean_motion": 15.41572455,
        "meta_eccentricity": 0.00213691,
        "meta_inclination": 73.9479,
        "meta_ra_of_asc_node": 215.6494,
        "meta_arg_of_pericenter": 54.1611,
        "meta_mean_anomaly": 306.1578,
        "meta_ephemeris_type": 0,
        "meta_classification_type": "U",
        "meta_norad_cat_id": 37085,
        "meta_element_set_no": 999,
        "meta_rev_at_epoch": 67140,
        "meta_bstar": 0.0027639648,
        "meta_mean_motion_dot": 0.0011891,
        "meta_mean_motion_ddot": 0,
        "tle_line1": "1 37085U 93036BFF 25346.92110507  .00118910  00000+0  27640-2 0  9999",
        "tle_line2": "2 37085  73.9479 215.6494 0021369  54.1611 306.1578 15.41572455671401"
      },
      "geometry": {
        "type": "Point",
        "coordinates": [
          -134.90477093097007,
          31.855552730374992
        ]
      }
    },
    {
      "type": "Feature",
      "properties": {
        "norad_id": 37089,
        "name": "COSMOS 2251 DEB",
        "group": "cosmos-2251-debris",
        "lat": -8.117398218524498,
        "lon": 142.3193310181089,
        "alt_km": 746.6251524589779,
        "timestamp": "2025-12-13T07:35:41.901876+00:00",
        "meta_object_name": "COSMOS 2251 DEB",
        "meta_object_id": "1993-036BFK",
        "meta_epoch": "2025-12-09T17:42:06.763392",
        "meta_mean_motion": 14.52845175,
        "meta_eccentricity": 0.01352804,
        "meta_inclination": 74.0366,
        "meta_ra_of_asc_node": 151.4105,
        "meta_arg_of_pericenter": 252.1975,
        "meta_mean_anomaly": 106.439,
        "meta_ephemeris_type": 0,
        "meta_classification_type": "U",
        "meta_norad_cat_id": 37089,
        "meta_element_set_no": 999,
        "meta_rev_at_epoch": 66066,
        "meta_bstar": 0.0037030969,
        "meta_mean_motion_dot": 0.00017193,
        "meta_mean_motion_ddot": 0,
        "tle_line1": "1 37089U 93036BFK 25343.73757828  .00017193  00000+0  37031-2 0  9998",
        "tle_line2": "2 37089  74.0366 151.4105 0135280 252.1975 106.4390 14.52845175660661"
      },
      "geometry": {
        "type": "Point",
        "coordinates": [
          142.3193310181089,
          -8.117398218524498
        ]
      }
    }
  ]
}